{"type": "FeatureCollection", "features": [ {"type": "Feature", "properties": {"norad_id": 28649, "name": "IRS-P5 (CARTOSAT-1)", "group": "resource", "lat": -12.989460181771033, "lon": 24.21520105157176, "alt_km": 600.9480328759328, "timestamp": "2025-12-22T11:33:20.085870+00:00", "meta": {"OBJECT_NAME": "IRS-P5 (CARTOSAT-1)", "OBJECT_ID": "2005-017A", "EPOCH": "2025-12-22T01:56:47.866848", "MEAN_MOTION": 14.90434704, "ECCENTRICITY": 6.84e-05, "INCLINATION": 97.5483, "RA_OF_ASC_NODE": 22.0798, "ARG_OF_PERICENTER": 54.1039, "MEAN_ANOMALY": 306.0243, "EPHEMERIS_TYPE": 0, "CLASSIFICATION_TYPE": "U", "NORAD_CAT_ID": 28649, "ELEMENT_SET_NO": 999, "REV_AT_EPOCH": 11743, "BSTAR": 0.00015409, "MEAN_MOTION_DOT": 1.45e-05, "MEAN_MOTION_DDOT": 0}, "tle": {"line1": "1 28649U 05017A   25356.08110957  .00001450  00000+0  15409-3 0  9995", "line2": "2 28649  97.5483  22.0798 0000684  54.1039 306.0243 14.90434704117435"}}, "geometry": {"type": "Point", "coordinates": [24.21520105157176, -12.989460181771033]}}, {"type": "Feature", "properties": {"norad_id": 28893, "name": "SINAH 1", "group": "resource", "lat": 44.67405845909069, "lon": -46.676521541254836, "alt_km": 666.6311327098174, "timestamp": "2025-12-22T11:33:20.085881+00:00", "meta": {"OBJECT_NAME": "SINAH 1", "OBJECT_ID": "2005-043D", "EPOCH": "2025-12-22T02:44:31.096320", "MEAN_MOTION": 14.63971927, "ECCENTRICITY": 0.0015676, "INCLINATION": 98.2609, "RA_OF_ASC_NODE": 124.6968, "ARG_OF_PERICENTER": 109.6185, "MEAN_ANOMALY": 250.671, "EPHEMERIS_TYPE": 0, "CLASSIFICATION_TYPE": "U", "NORAD_CAT_ID": 28893, "ELEMENT_SET_NO": 999, "REV_AT_EPOCH": 7461, "BSTAR": 8.6699e-05, "MEAN_MOTION_DOT": 4.06e-06, "MEAN_MOTION_DDOT": 0}, "tle": {"line1": "1 28893U 05043D   25356.11424880  .00000406  00000+0  86699-4 0  9992", "line2": "2 28893  98.2609 124.6968 0015676 109.6185 250.6710 14.63971927 74615"}}, "geometry": {"type": "Point", "coordinates": [-46.676521541254836, 44.67405845909069]}}, {"type": "Feature", "properties": {"norad_id": 29079, "name": "EROS B", "group": "resource", "lat": -67.80668319240259, "lon": -84.89560722100804, "alt_km": 361.20569637013614, "timestamp": "2025-12-22T11:33:20.085892+00:00", "meta": {"OBJECT_NAME": "EROS B", "OBJECT_ID": "2006-014A", "EPOCH": "2025-12-22T04:23:05.748288", "MEAN_MOTION": 15.71184945, "ECCENTRICITY": 0.0003789, "INCLINATION": 97.3463, "RA_OF_ASC_NODE": 113.2267, "ARG_OF_PERICENTER": 311.397, "MEAN_ANOMALY": 48.6967, "EPHEMERIS_TYPE": 0, "CLASSIFICATION_TYPE": "U", "NORAD_CAT_ID": 29079, "ELEMENT_SET_NO": 999, "REV_AT_EPOCH": 9228, "BSTAR": 0.0015798, "MEAN_MOTION_DOT": 0.00203566, "MEAN_MOTION_DDOT": 0}, "tle": {"line1": "1 29079U 06014A   25356.18270542  .00203566  00000+0  15798-2 0  9991", "line2": "2 29079  97.3463 113.2267 0003789 311.3970  48.6967 15.71184945 92280"}}, "geometry": {"type": "Point", "coordinates": [-84.89560722100804, -67.80668319240259]}}, {"type": "Feature", "properties": {"norad_id": 29228, "name": "RESURS-DK 1", "group": "resource", "lat": -33.110752786504506, "lon": 62.87149530213542, "alt_km": 533.7546579849104, "timestamp": "2025-12-22T11:33:20.085902+00:00", "meta": {"OBJECT_NAME": "RESURS-DK 1", "OBJECT_ID": "2006-021A", "EPOCH": "2025-12-21T23:00:43.959168", "MEAN_MOTION": 15.12208647, "ECCENTRICITY": 0.000686, "INCLINATION": 69.9338, "RA_OF_ASC_NODE": 78.0128, "ARG_OF_PERICENTER": 250.9128, "MEAN_ANOMALY": 109.1296, "EPHEMERIS_TYPE": 0, "CLASSIFICATION_TYPE": "U", "NORAD_CAT_ID": 29228, "ELEMENT_SET_NO": 999, "REV_AT_EPOCH": 7577, "BSTAR": 0.00015044, "MEAN_MOTION_DOT": 2.498e-05, "MEAN_MOTION_DDOT": 0}, "tle": {"line1": "1 29228U 06021A   25355.95884212  .00002498  00000+0  15044-3 0  9990", "line2": "2 29228  69.9338  78.0128 0006860 250.9128 109.1296 15.12208647 75776"}}, "geometry": {"type": "Point", "coordinates": [62.87149530213542, -33.110752786504506]}}, {"type": "Feature", "properties": {"norad_id": 29268, "name": "ARIRANG-2 (KOMPSAT-2)", "group": "resource", "lat": 57.434887701543154, "lon": 172.04412461269123, "alt_km": 680.5312611266809, "timestamp": "2025-12-22T11:33:20.085913+00:00", "meta": {"OBJECT_NAME": "ARIRANG-2 (KOMPSAT-2)", "OBJECT_ID": "2006-031A", "EPOCH": "2025-12-22T05:08:13.665120", "MEAN_MOTION": 14.64500928, "ECCENTRICITY": 0.0013161, "INCLINATION": 97.8253, "RA_OF_ASC_NODE": 184.2247, "ARG_OF_PERICENTER": 276.6567, "MEAN_ANOMALY": 172.4727, "EPHEMERIS_TYPE": 0, "CLASSIFICATION_TYPE": "U", "NORAD_CAT_ID": 29268, "ELEMENT_SET_NO": 999, "REV_AT_EPOCH": 3557, "BSTAR": 4.8688e-05, "MEAN_MOTION_DOT": 2.13e-06, "MEAN_MOTION_DDOT": 0}, "tle": {"line1": "1 29268U 06031A   25356.21404705  .00000213  00000+0  48688-4 0  9994", "line2": "2 29268  97.8253 184.2247 0013161 276.6567 172.4727 14.64500928 35571"}}, "geometry": {"type": "Point", "coordinates": [172.04412461269123, 57.434887701543154]}}, {"type": "Feature", "properties": {"norad_id": 29709, "name": "LAPAN-TUBSAT", "group": "resource", "lat": 14.483872639897525, "lon": -15.2768191406367, "alt_km": 604.3467279895694, "timestamp": "2025-12-22T11:33:20.085924+00:00", "meta": {"OBJECT_NAME": "LAPAN-TUBSAT", "OBJECT_ID": "2007-001A", "EPOCH": "2025-12-22T05:01:28.030944", "MEAN_MOTION": 14.85685603, "ECCENTRICITY": 0.0013362, "INCLINATION": 98.1255, "RA_OF_ASC_NODE": 346.5605, "ARG_OF_PERICENTER": 46.2746, "MEAN_ANOMALY": 313.9572, "EPHEMERIS_TYPE": 0, "CLASSIFICATION_TYPE": "U", "NORAD_CAT_ID": 29709, "ELEMENT_SET_NO": 999, "REV_AT_EPOCH": 2487, "BSTAR": 0.00014056, "MEAN_MOTION_DOT": 1.163e-05, "MEAN_MOTION_DDOT": 0}, "tle": {"line1": "1 29709U 07001A   25356.20935221  .00001163  00000+0  14056-3 0  9999", "line2": "2 29709  98.1255 346.5605 0013362  46.2746 313.9572 14.85685603 24879"}}, "geometry": {"type": "Point", "coordinates": [-15.2768191406367, 14.483872639897525]}}, {"type": "Feature", "properties": {"norad_id": 31113, "name": "HAIYANG-1B", "group": "resource", "lat": 35.24526387277903, "lon": 166.30147857928765, "alt_km": 792.9632091346912, "timestamp": "2025-12-22T11:33:20.085935+00:00", "meta": {"OBJECT_NAME": "HAIYANG-1B", "OBJECT_ID": "2007-010A", "EPOCH": "2025-12-21T21:27:33.332256", "MEAN_MOTION": 14.30967998, "ECCENTRICITY": 0.0013781, "INCLINATION": 98.3324, "RA_OF_ASC_NODE": 339.7943, "ARG_OF_PERICENTER": 11.8989, "MEAN_ANOMALY": 348.2518, "EPHEMERIS_TYPE": 0, "CLASSIFICATION_TYPE": "U", "NORAD_CAT_ID": 31113, "ELEMENT_SET_NO": 999, "REV_AT_EPOCH": 97527, "BSTAR": 5.1433e-05, "MEAN_MOTION_DOT": 9.4e-07, "MEAN_MOTION_DDOT": 0}, "tle": {"line1": "1 31113U 07010A   25355.89413579  .00000094  00000+0  51433-4 0  9995", "line2": "2 31113  98.3324 339.7943 0013781  11.8989 348.2518 14.30967998975271"}}, "geometry": {"type": "Point", "coordinates": [166.30147857928765, 35.24526387277903]}}, {"type": "Feature", "properties": {"norad_id": 31598, "name": "COSMO-SKYMED 1", "group": "resource", "lat": -34.50780639677571, "lon": -172.58864166643812, "alt_km": 586.4829614253786, "timestamp": "2025-12-22T11:33:20.085945+00:00", "meta": {"OBJECT_NAME": "COSMO-SKYMED 1", "OBJECT_ID": "2007-023A", "EPOCH": "2025-12-22T03:41:02.398272", "MEAN_MOTION": 14.9583495, "ECCENTRICITY": 0.0001498, "INCLINATION": 97.8839, "RA_OF_ASC_NODE": 181.6148, "ARG_OF_PERICENTER": 81.1981, "MEAN_ANOMALY": 278.941, "EPHEMERIS_TYPE": 0, "CLASSIFICATION_TYPE": "U", "NORAD_CAT_ID": 31598, "ELEMENT_SET_NO": 999, "REV_AT_EPOCH": 331, "BSTAR": 0.00030947, "MEAN_MOTION_DOT": 3.397e-05, "MEAN_MOTION_DDOT": 0}, "tle": {"line1": "1 31598U 07023A   25356.15349998  .00003397  00000+0  30947-3 0  9994", "line2": "2 31598  97.8839 181.6148 0001498  81.1981 278.9410 14.95834950  3317"}}, "geometry": {"type": "Point", "coordinates": [-172.58864166643812, -34.50780639677571]}}, {"type": "Feature", "properties": {"norad_id": 31698, "name": "TERRASAR-X", "group": "resource", "lat": 76.22566363831356, "lon": -30.51837327850277, "alt_km": 499.90504800557574, "timestamp": "2025-12-22T11:33:20.085955+00:00", "meta": {"OBJECT_NAME": "TERRASAR-X", "OBJECT_ID": "2007-026A", "EPOCH": "2025-12-21T13:04:48.918432", "MEAN_MOTION": 15.19155537, "ECCENTRICITY": 0.0001908, "INCLINATION": 97.4453, "RA_OF_ASC_NODE": 0.797, "ARG_OF_PERICENTER": 92.2081, "MEAN_ANOMALY": 267.9372, "EPHEMERIS_TYPE": 0, "CLASSIFICATION_TYPE": "U", "NORAD_CAT_ID": 31698, "ELEMENT_SET_NO": 999, "REV_AT_EPOCH": 2625, "BSTAR": 3.2984e-05, "MEAN_MOTION_DOT": 6.26e-06, "MEAN_MOTION_DDOT": 0}, "tle": {"line1": "1 31698U 07026A   25355.54501063  .00000626  00000+0  32984-4 0  9999", "line2": "2 31698  97.4453   0.7970 0001908  92.2081 267.9372 15.19155537 26257"}}, "geometry": {"type": "Point", "coordinates": [-30.51837327850277, 76.22566363831356]}}, {"type": "Feature", "properties": {"norad_id": 32060, "name": "WORLDVIEW-1 (WV-1)", "group": "resource", "lat": -82.08772407494202, "lon": -135.07911110048164, "alt_km": 501.7258980571205, "timestamp": "2025-12-22T11:33:20.085966+00:00", "meta": {"OBJECT_NAME": "WORLDVIEW-1 (WV-1)", "OBJECT_ID": "2007-041A", "EPOCH": "2025-12-21T21:46:45.108192", "MEAN_MOTION": 15.23900094, "ECCENTRICITY": 0.0003402, "INCLINATION": 97.3828, "RA_OF_ASC_NODE": 113.257, "ARG_OF_PERICENTER": 6.3432, "MEAN_ANOMALY": 353.7848, "EPHEMERIS_TYPE": 0, "CLASSIFICATION_TYPE": "U", "NORAD_CAT_ID": 32060, "ELEMENT_SET_NO": 999, "REV_AT_EPOCH": 1587, "BSTAR": 0.0003111, "MEAN_MOTION_DOT": 7.445e-05, "MEAN_MOTION_DDOT": 0}, "tle": {"line1": "1 32060U 07041A   25355.90746653  .00007445  00000+0  31110-3 0  9991", "line2": "2 32060  97.3828 113.2570 0003402   6.3432 353.7848 15.23900094 15878"}}, "geometry": {"type": "Point", "coordinates": [-135.07911110048164, -82.08772407494202]}}]}